STARLINK-30505          
1 57972U 23151J   26067.11927383  .00035659  00000+0  13308-2 0  9991
2 57972  43.0004 345.0806 0001631 252.0236 108.0438 15.26785781135520
OTTER                   
1 62623U 25009Q   26068.72300813  .00012198  00000+0  45151-3 0  9990
2 62623  97.4065 151.3812 0003573 310.7710  49.3219 15.27809545 63722
